OTTER                   
1 62623U 25009Q   26068.72300813  .00012198  00000+0  45151-3 0  9990
2 62623  97.4065 151.3812 0003573 310.7710  49.3219 15.27809545 63722
STARLINK-34045          
1 63979U 25099AD  26068.33681440  .00028369  00000+0  10359-2 0  9997
2 63979  43.0012 174.6288 0001909 276.8329  83.2306 15.27596870 47236
